<?xml version="1.0" encoding="UTF-8"?>
<gpx creator="https://gpx.studio" version="1.1" schemaLocation="http://www.topografix.com/GPX/1/1 http://www.topografix.com/GPX/1/1/gpx.xsd http://www.garmin.com/xmlschemas/GpxExtensions/v3 http://www.garmin.com/xmlschemas/GpxExtensionsv3.xsd http://www.garmin.com/xmlschemas/TrackPointExtension/v1 http://www.garmin.com/xmlschemas/TrackPointExtensionv1.xsd http://www.garmin.com/xmlschemas/PowerExtension/v1 http://www.garmin.com/xmlschemas/PowerExtensionv1.xsd http://www.topografix.com/GPX/gpx_style/0/2 http://www.topografix.com/GPX/gpx_style/0/2/gpx_style.xsd" xmlns="http://www.topografix.com/GPX/1/1" xmlns:xsi="http://www.w3.org/2001/XMLSchema-instance" xsi:schemaLocation="http://www.topografix.com/GPX/1/1 http://www.topografix.com/GPX/1/1/gpx.xsd http://www.garmin.com/xmlschemas/GpxExtensions/v3 http://www.garmin.com/xmlschemas/GpxExtensionsv3.xsd http://www.garmin.com/xmlschemas/TrackPointExtension/v1 http://www.garmin.com/xmlschemas/TrackPointExtensionv1.xsd http://www.garmin.com/xmlschemas/PowerExtension/v1 http://www.garmin.com/xmlschemas/PowerExtensionv1.xsd http://www.topografix.com/GPX/gpx_style/0/2 http://www.topografix.com/GPX/gpx_style/0/2/gpx_style.xsd" xmlns:gpxtpx="http://www.garmin.com/xmlschemas/TrackPointExtension/v1" xmlns:gpxx="http://www.garmin.com/xmlschemas/GpxExtensions/v3" xmlns:gpxpx="http://www.garmin.com/xmlschemas/PowerExtension/v1" xmlns:gpx_style="http://www.topografix.com/GPX/gpx_style/0/2">
  <metadata>
    <name>Prologo_Lisboa</name>
    <author>
      <name>gpx.studio</name>
      <link href="https://gpx.studio"/>
    </author>
  </metadata>
  <trk>
    <name>Prologo_Lisboa</name>
    <extensions>
      <gpx_style:line>
        <gpx_style:color>4752e6</gpx_style:color>
      </gpx_style:line>
    </extensions>
    <trkseg>
      <trkpt lat="38.69578963221596" lon="-9.20716870305472">
        <ele>3.881235652406152</ele>
      </trkpt>
      <trkpt lat="38.695362930501965" lon="-9.206986962763125">
        <ele>3.773294509017395</ele>
      </trkpt>
      <trkpt lat="38.69505658733152" lon="-9.206856485440682">
        <ele>3.638116894776057</ele>
      </trkpt>
      <trkpt lat="38.69498110096663" lon="-9.206847361169423">
        <ele>3.644698905866389</ele>
      </trkpt>
      <trkpt lat="38.694912735888465" lon="-9.206845536315171">
        <ele>3.678805351321925</ele>
      </trkpt>
      <trkpt lat="38.69484152219539" lon="-9.206874733985131">
        <ele>3.689851069354063</ele>
      </trkpt>
      <trkpt lat="38.69480733959779" lon="-9.206924005052798">
        <ele>3.696906707349431</ele>
      </trkpt>
      <trkpt lat="38.69478312691393" lon="-9.20701889748156">
        <ele>3.7151200332996237</ele>
      </trkpt>
      <trkpt lat="38.69474182290577" lon="-9.207265252822879">
        <ele>3.7212767858353657</ele>
      </trkpt>
      <trkpt lat="38.69466633620874" lon="-9.207644822534206">
        <ele>3.7403761563373754</ele>
      </trkpt>
      <trkpt lat="38.694574765247864" lon="-9.208091785605461">
        <ele>3.7334403702262016</ele>
      </trkpt>
      <trkpt lat="38.69447648986818" lon="-9.208546174345912">
        <ele>3.7124577614942256</ele>
      </trkpt>
      <trkpt lat="38.69443376140043" lon="-9.208772456289495">
        <ele>3.698514319784444</ele>
      </trkpt>
      <trkpt lat="38.694403851457594" lon="-9.209009687359583">
        <ele>3.7005959217424396</ele>
      </trkpt>
      <trkpt lat="38.6943744001814" lon="-9.209248482046604">
        <ele>3.731389776854132</ele>
      </trkpt>
      <trkpt lat="38.69433594450638" lon="-9.209646300302381">
        <ele>3.7253087744496804</ele>
      </trkpt>
      <trkpt lat="38.694288943098314" lon="-9.21011711273303">
        <ele>3.7231859581151965</ele>
      </trkpt>
      <trkpt lat="38.69425048737733" lon="-9.210503981862274">
        <ele>3.742802285598768</ele>
      </trkpt>
      <trkpt lat="38.69423756487669" lon="-9.210647079769899">
        <ele>3.762719086064655</ele>
      </trkpt>
      <trkpt lat="38.6941934119788" lon="-9.211054022296935">
        <ele>3.7427550943198216</ele>
      </trkpt>
      <trkpt lat="38.69416635051138" lon="-9.211393445212792">
        <ele>3.7321193592491624</ele>
      </trkpt>
      <trkpt lat="38.69411080325756" lon="-9.211959150071237">
        <ele>3.7659534141232953</ele>
      </trkpt>
      <trkpt lat="38.69411080325756" lon="-9.211959150071237">
        <ele>3.7659534141232953</ele>
      </trkpt>
      <trkpt lat="38.69409683262958" lon="-9.212134712737168">
        <ele>3.778843746042388</ele>
      </trkpt>
      <trkpt lat="38.694066922545915" lon="-9.212485084778535">
        <ele>3.787686439800911</ele>
      </trkpt>
      <trkpt lat="38.69401849667031" lon="-9.212985094879116">
        <ele>3.7961289634468445</ele>
      </trkpt>
      <trkpt lat="38.69398431367938" lon="-9.213399336824125">
        <ele>3.8101497425894904</ele>
      </trkpt>
      <trkpt lat="38.693949544905934" lon="-9.21376808143188">
        <ele>3.8285075626612843</ele>
      </trkpt>
      <trkpt lat="38.69392105905422" lon="-9.214098380074546">
        <ele>3.82291691431666</ele>
      </trkpt>
      <trkpt lat="38.69387417318783" lon="-9.214671360002976">
        <ele>3.8121826439955497</ele>
      </trkpt>
      <trkpt lat="38.6938726330784" lon="-9.214690181278087">
        <ele>3.8105570928414148</ele>
      </trkpt>
      <trkpt lat="38.69382647840402" lon="-9.215263258240538">
        <ele>3.795294463549215</ele>
      </trkpt>
      <trkpt lat="38.69381872461619" lon="-9.215359532718338">
        <ele>3.785762474623754</ele>
      </trkpt>
      <trkpt lat="38.693764023672315" lon="-9.215931373264585">
        <ele>3.7591638934421896</ele>
      </trkpt>
      <trkpt lat="38.69372627636474" lon="-9.21632598146428">
        <ele>3.7215524287257633</ele>
      </trkpt>
      <trkpt lat="38.69368219767522" lon="-9.21689932543486">
        <ele>3.707668824839991</ele>
      </trkpt>
      <trkpt lat="38.69366075868328" lon="-9.217178188461446">
        <ele>3.691634535491195</ele>
      </trkpt>
      <trkpt lat="38.69365078859602" lon="-9.217214685548385">
        <ele>3.6853092074813234</ele>
      </trkpt>
      <trkpt lat="38.69363084841726" lon="-9.217185487878453">
        <ele>3.675706592088601</ele>
      </trkpt>
      <trkpt lat="38.693656485788466" lon="-9.216763946516437">
        <ele>3.676463798052888</ele>
      </trkpt>
      <trkpt lat="38.693710981486525" lon="-9.216192074490678">
        <ele>3.7245954001362707</ele>
      </trkpt>
      <trkpt lat="38.693716306286575" lon="-9.216136196608602">
        <ele>3.7269841338918708</ele>
      </trkpt>
      <trkpt lat="38.69377038284527" lon="-9.215564258743465">
        <ele>3.7720361220376617</ele>
      </trkpt>
      <trkpt lat="38.69378894539534" lon="-9.215367932913722">
        <ele>3.769373534606901</ele>
      </trkpt>
      <trkpt lat="38.693835196022526" lon="-9.214794868728342">
        <ele>3.778912505275035</ele>
      </trkpt>
      <trkpt lat="38.693881446649705" lon="-9.214221804542962">
        <ele>3.794727054711034</ele>
      </trkpt>
      <trkpt lat="38.69388294883848" lon="-9.21420319180973">
        <ele>3.7989727236095416</ele>
      </trkpt>
      <trkpt lat="38.693928526220674" lon="-9.213723255107823">
        <ele>3.8075423520201888</ele>
      </trkpt>
      <trkpt lat="38.69397607296543" lon="-9.213150363953497">
        <ele>3.7725105920934894</ele>
      </trkpt>
      <trkpt lat="38.694022906299836" lon="-9.212586068686875">
        <ele>3.7464693209784916</ele>
      </trkpt>
      <trkpt lat="38.69407621191344" lon="-9.212014009311906">
        <ele>3.7529988185527396</ele>
      </trkpt>
      <trkpt lat="38.69412951752705" lon="-9.211441949936935">
        <ele>3.717884880687942</ele>
      </trkpt>
      <trkpt lat="38.69416202280729" lon="-9.211093113312813">
        <ele>3.7241259689442887</ele>
      </trkpt>
      <trkpt lat="38.69421587707815" lon="-9.210521137528689">
        <ele>3.7346720376008804</ele>
      </trkpt>
      <trkpt lat="38.69421614573446" lon="-9.210518284182086">
        <ele>3.734299529209661</ele>
      </trkpt>
      <trkpt lat="38.69427230360747" lon="-9.209946671558372">
        <ele>3.7128939859465264</ele>
      </trkpt>
      <trkpt lat="38.6943172700357" lon="-9.209488972991124">
        <ele>3.6988080698236905</ele>
      </trkpt>
      <trkpt lat="38.69437802506383" lon="-9.208918131989043">
        <ele>3.68000619105192</ele>
      </trkpt>
      <trkpt lat="38.69438136283222" lon="-9.208886771044718">
        <ele>3.679181857696871</ele>
      </trkpt>
      <trkpt lat="38.69445115270048" lon="-9.208538223857602">
        <ele>3.6929464111002948</ele>
      </trkpt>
      <trkpt lat="38.694567121392055" lon="-9.207981588246046">
        <ele>3.7163225531841326</ele>
      </trkpt>
      <trkpt lat="38.694619569511474" lon="-9.207729843653311">
        <ele>3.729274758735726</ele>
      </trkpt>
      <trkpt lat="38.69467796492643" lon="-9.207428742680634">
        <ele>3.7048452111018095</ele>
      </trkpt>
      <trkpt lat="38.69476847538087" lon="-9.206892178840093">
        <ele>3.6860231946804256</ele>
      </trkpt>
      <trkpt lat="38.69480693082343" lon="-9.20654728136148">
        <ele>3.6613886059926384</ele>
      </trkpt>
      <trkpt lat="38.69486532608471" lon="-9.206253479805781">
        <ele>3.6703220693438987</ele>
      </trkpt>
      <trkpt lat="38.69491090284092" lon="-9.206036322134423">
        <ele>3.6775074412505546</ele>
      </trkpt>
      <trkpt lat="38.69501012187403" lon="-9.205474392853423">
        <ele>3.689516026248439</ele>
      </trkpt>
      <trkpt lat="38.69510934090714" lon="-9.204912463572423">
        <ele>3.7056516273335296</ele>
      </trkpt>
      <trkpt lat="38.69517645186235" lon="-9.204532379130654">
        <ele>3.6999607497766696</ele>
      </trkpt>
      <trkpt lat="38.69526190788514" lon="-9.204070690971292">
        <ele>3.6995602494577158</ele>
      </trkpt>
      <trkpt lat="38.69536430188922" lon="-9.203509694859136">
        <ele>3.6899945496249846</ele>
      </trkpt>
      <trkpt lat="38.695466695893295" lon="-9.202948698746978">
        <ele>3.703913872621147</ele>
      </trkpt>
      <trkpt lat="38.69549470327186" lon="-9.202795251964346">
        <ele>3.7065656928966177</ele>
      </trkpt>
      <trkpt lat="38.69559661583718" lon="-9.202234110162838">
        <ele>3.702331032498363</ele>
      </trkpt>
      <trkpt lat="38.695698528402495" lon="-9.201672968361331">
        <ele>3.685223389842596</ele>
      </trkpt>
      <trkpt lat="38.69571871206617" lon="-9.201561834887684">
        <ele>3.66869588636377</ele>
      </trkpt>
      <trkpt lat="38.69582227394843" lon="-9.20100118723165">
        <ele>3.68532223238068</ele>
      </trkpt>
      <trkpt lat="38.6959258358307" lon="-9.200440539575617">
        <ele>3.682869052368238</ele>
      </trkpt>
      <trkpt lat="38.69595272196676" lon="-9.200294987478316">
        <ele>3.649740805643144</ele>
      </trkpt>
      <trkpt lat="38.69605507177644" lon="-9.199733972789486">
        <ele>3.6671732328789353</ele>
      </trkpt>
      <trkpt lat="38.696157421586115" lon="-9.199172958100657">
        <ele>3.7204449044266683</ele>
      </trkpt>
      <trkpt lat="38.696164945356855" lon="-9.199131717712305">
        <ele>3.757021447724411</ele>
      </trkpt>
      <trkpt lat="38.696164945356855" lon="-9.199131717712305">
        <ele>3.757021447724411</ele>
      </trkpt>
      <trkpt lat="38.69621621827437" lon="-9.198757622563761">
        <ele>4.001918970282034</ele>
      </trkpt>
      <trkpt lat="38.69626891540119" lon="-9.198405425668142">
        <ele>3.947479866704647</ele>
      </trkpt>
      <trkpt lat="38.69632036083456" lon="-9.197833068973255">
        <ele>3.942488732113255</ele>
      </trkpt>
      <trkpt lat="38.696367798912576" lon="-9.197305296151399">
        <ele>4.180814517198054</ele>
      </trkpt>
      <trkpt lat="38.69640605622184" lon="-9.196731244611295">
        <ele>3.72360463496597</ele>
      </trkpt>
      <trkpt lat="38.6964443135311" lon="-9.19615719307119">
        <ele>3.6782117315800176</ele>
      </trkpt>
      <trkpt lat="38.69645693717976" lon="-9.195967775020279">
        <ele>3.665867247179209</ele>
      </trkpt>
      <trkpt lat="38.69649076273231" lon="-9.195393266366619">
        <ele>3.5717712438845473</ele>
      </trkpt>
      <trkpt lat="38.696493967470786" lon="-9.195338835622778">
        <ele>3.5651164365237147</ele>
      </trkpt>
      <trkpt lat="38.69653161119254" lon="-9.19476471666094">
        <ele>3.486256617826814</ele>
      </trkpt>
      <trkpt lat="38.69653811894861" lon="-9.19466546435575">
        <ele>3.50010848687174</ele>
      </trkpt>
      <trkpt lat="38.69658212664481" lon="-9.194092088203021">
        <ele>3.5436745224150465</ele>
      </trkpt>
      <trkpt lat="38.69662613434102" lon="-9.193518712050292">
        <ele>3.4735263460900923</ele>
      </trkpt>
      <trkpt lat="38.69664493692338" lon="-9.193273733256405">
        <ele>3.444191281940919</ele>
      </trkpt>
      <trkpt lat="38.69673023837743" lon="-9.192708051458483">
        <ele>3.3797011353379327</ele>
      </trkpt>
      <trkpt lat="38.696815539831476" lon="-9.192142369660562">
        <ele>3.3608710888332434</ele>
      </trkpt>
      <trkpt lat="38.696900841285526" lon="-9.19157668786264">
        <ele>3.39092012547785</ele>
      </trkpt>
      <trkpt lat="38.69692552764647" lon="-9.19141297875359">
        <ele>3.3653053653844154</ele>
      </trkpt>
      <trkpt lat="38.69701775070945" lon="-9.190849080327412">
        <ele>3.388707421196194</ele>
      </trkpt>
      <trkpt lat="38.69710997377243" lon="-9.190285181901233">
        <ele>3.355946979070005</ele>
      </trkpt>
      <trkpt lat="38.697202196835406" lon="-9.189721283475055">
        <ele>3.390501166485851</ele>
      </trkpt>
      <trkpt lat="38.69727036586855" lon="-9.189304463546705">
        <ele>3.3916031100644064</ele>
      </trkpt>
      <trkpt lat="38.69737475902514" lon="-9.188744057017297">
        <ele>3.374802750398622</ele>
      </trkpt>
      <trkpt lat="38.69746947992044" lon="-9.188235573416165">
        <ele>3.423530681363945</ele>
      </trkpt>
      <trkpt lat="38.69755597737137" lon="-9.187670183980185">
        <ele>3.4420387905723846</ele>
      </trkpt>
      <trkpt lat="38.697586356929065" lon="-9.187471608405929">
        <ele>3.4708340632219605</ele>
      </trkpt>
      <trkpt lat="38.69766799259716" lon="-9.186905032105763">
        <ele>3.4825684817058273</ele>
      </trkpt>
      <trkpt lat="38.69774962826525" lon="-9.186338455805597">
        <ele>3.5449826832117837</ele>
      </trkpt>
      <trkpt lat="38.69780280070481" lon="-9.18596942294559">
        <ele>3.595266728939574</ele>
      </trkpt>
      <trkpt lat="38.69791611053813" lon="-9.185411862669003">
        <ele>3.64226910444225</ele>
      </trkpt>
      <trkpt lat="38.69802942037146" lon="-9.184854302392415">
        <ele>3.679118060266401</ele>
      </trkpt>
      <trkpt lat="38.698058438476636" lon="-9.184711513878199">
        <ele>3.6730069145838833</ele>
      </trkpt>
      <trkpt lat="38.69819408497224" lon="-9.184162199771377">
        <ele>3.7188637257862536</ele>
      </trkpt>
      <trkpt lat="38.698287783517856" lon="-9.183782758100847">
        <ele>3.745927803183476</ele>
      </trkpt>
      <trkpt lat="38.69844617067243" lon="-9.183243526705846">
        <ele>3.7358766875048577</ele>
      </trkpt>
      <trkpt lat="38.69859051738888" lon="-9.182752096188779">
        <ele>3.696768891350551</ele>
      </trkpt>
      <trkpt lat="38.69875612115391" lon="-9.18221643367992">
        <ele>3.7328313579808308</ele>
      </trkpt>
      <trkpt lat="38.69890554116208" lon="-9.181733119206768">
        <ele>3.7260832220990774</ele>
      </trkpt>
      <trkpt lat="38.69909765457721" lon="-9.181212189492342">
        <ele>3.737443864521028</ele>
      </trkpt>
      <trkpt lat="38.69922996918402" lon="-9.180853408663353">
        <ele>3.75864801735231</ele>
      </trkpt>
      <trkpt lat="38.69926045810604" lon="-9.180866430794424">
        <ele>3.75559205115046</ele>
      </trkpt>
      <trkpt lat="38.69919948024807" lon="-9.181018355653805">
        <ele>3.7502186862636226</ele>
      </trkpt>
      <trkpt lat="38.69900635019139" lon="-9.181538667831788">
        <ele>3.713860418423323</ele>
      </trkpt>
      <trkpt lat="38.69893964081717" lon="-9.18171838972691">
        <ele>3.7243325579935407</ele>
      </trkpt>
      <trkpt lat="38.698827847536535" lon="-9.182076498324903">
        <ele>3.7262192454245984</ele>
      </trkpt>
      <trkpt lat="38.69868275299643" lon="-9.182551752553195">
        <ele>3.6865104270147535</ele>
      </trkpt>
      <trkpt lat="38.698515753397665" lon="-9.183086701960976">
        <ele>3.7170575242609436</ele>
      </trkpt>
      <trkpt lat="38.698503205482865" lon="-9.183126896665868">
        <ele>3.7269849399537684</ele>
      </trkpt>
      <trkpt lat="38.69835321507673" lon="-9.183670055433751">
        <ele>3.7434415953761304</ele>
      </trkpt>
      <trkpt lat="38.698326172857435" lon="-9.18376798315387">
        <ele>3.7432073606038987</ele>
      </trkpt>
      <trkpt lat="38.6981899364908" lon="-9.184317058007116">
        <ele>3.696816238463826</ele>
      </trkpt>
      <trkpt lat="38.6981398490278" lon="-9.184518926033093">
        <ele>3.6809501374488867</ele>
      </trkpt>
      <trkpt lat="38.69801718806064" lon="-9.185073228937268">
        <ele>3.6763524966722363</ele>
      </trkpt>
      <trkpt lat="38.697935496886515" lon="-9.185442390016902">
        <ele>3.648906807297873</ele>
      </trkpt>
      <trkpt lat="38.69782757565414" lon="-9.186001702254114">
        <ele>3.6000215667700424</ele>
      </trkpt>
      <trkpt lat="38.69782200817369" lon="-9.186030556260647">
        <ele>3.595292802577015</ele>
      </trkpt>
      <trkpt lat="38.697752105425195" lon="-9.186482622926547">
        <ele>3.515453427596502</ele>
      </trkpt>
      <trkpt lat="38.69768265695211" lon="-9.187029552422132">
        <ele>3.4881480158611686</ele>
      </trkpt>
      <trkpt lat="38.69760025704796" lon="-9.187595946606761">
        <ele>3.45793924348556</ele>
      </trkpt>
      <trkpt lat="38.69759051604902" lon="-9.18766290354327">
        <ele>3.4539153324278598</ele>
      </trkpt>
      <trkpt lat="38.697543087723204" lon="-9.187999308590264">
        <ele>3.4224608212343246</ele>
      </trkpt>
      <trkpt lat="38.69743774661438" lon="-9.188525147629775">
        <ele>3.420911545567219</ele>
      </trkpt>
      <trkpt lat="38.69735982846706" lon="-9.188963559369057">
        <ele>3.393835919771842</ele>
      </trkpt>
      <trkpt lat="38.6973005428645" lon="-9.189273920153909">
        <ele>3.4202993323313726</ele>
      </trkpt>
      <trkpt lat="38.69722699902263" lon="-9.189750065444514">
        <ele>3.3663530672977044</ele>
      </trkpt>
      <trkpt lat="38.697136949259075" lon="-9.190314540803142">
        <ele>3.3543666210172205</ele>
      </trkpt>
      <trkpt lat="38.69711689694526" lon="-9.190440238379523">
        <ele>3.3482918756456224</ele>
      </trkpt>
      <trkpt lat="38.697021574809916" lon="-9.191003289684545">
        <ele>3.3597674863859472</ele>
      </trkpt>
      <trkpt lat="38.696971897927995" lon="-9.191296722401859">
        <ele>3.3124471400477864</ele>
      </trkpt>
      <trkpt lat="38.69687916535136" lon="-9.191860482231451">
        <ele>3.361548409115645</ele>
      </trkpt>
      <trkpt lat="38.69686863791597" lon="-9.19192448288149">
        <ele>3.354071856121383</ele>
      </trkpt>
      <trkpt lat="38.696787331374566" lon="-9.19248009379703">
        <ele>3.412813346631773</ele>
      </trkpt>
      <trkpt lat="38.69673312696281" lon="-9.192870757723199">
        <ele>3.3868039374410044</ele>
      </trkpt>
      <trkpt lat="38.69668915093155" lon="-9.193227635367947">
        <ele>3.4501366702999285</ele>
      </trkpt>
      <trkpt lat="38.69663154266917" lon="-9.193795459767273">
        <ele>3.5257600029157743</ele>
      </trkpt>
      <trkpt lat="38.69658602282179" lon="-9.194368642202713">
        <ele>3.547010123036768</ele>
      </trkpt>
      <trkpt lat="38.69658241981543" lon="-9.194414010983138">
        <ele>3.5443322387361698</ele>
      </trkpt>
      <trkpt lat="38.69656039921472" lon="-9.19483505988029">
        <ele>3.533945580316653</ele>
      </trkpt>
      <trkpt lat="38.696521445712804" lon="-9.19540903550481">
        <ele>3.59437173073077</ele>
      </trkpt>
      <trkpt lat="38.69650162974196" lon="-9.195701021685295">
        <ele>3.6070111777889204</ele>
      </trkpt>
      <trkpt lat="38.69647622132746" lon="-9.196163307330607">
        <ele>3.659957402482389</ele>
      </trkpt>
      <trkpt lat="38.69643605684345" lon="-9.196737145277195">
        <ele>3.703107691612858</ele>
      </trkpt>
      <trkpt lat="38.696425480657894" lon="-9.196888249337263">
        <ele>3.796386392538238</ele>
      </trkpt>
      <trkpt lat="38.69638492270979" lon="-9.197462041482753">
        <ele>4.134158053977529</ele>
      </trkpt>
      <trkpt lat="38.696384827147284" lon="-9.197463393449937">
        <ele>4.1342577338569075</ele>
      </trkpt>
      <trkpt lat="38.69633434709914" lon="-9.198032374070323">
        <ele>3.822253924851818</ele>
      </trkpt>
      <trkpt lat="38.696276754544925" lon="-9.198601007117304">
        <ele>3.9402724565602054</ele>
      </trkpt>
      <trkpt lat="38.69620391683671" lon="-9.199089337024787">
        <ele>3.8835865083860575</ele>
      </trkpt>
      <trkpt lat="38.6961156514777" lon="-9.199606575694645">
        <ele>3.6770568870908047</ele>
      </trkpt>
      <trkpt lat="38.69601079198799" lon="-9.200166828582233">
        <ele>3.6926038333948963</ele>
      </trkpt>
      <trkpt lat="38.69590593249828" lon="-9.20072708146982">
        <ele>3.711580043399469</ele>
      </trkpt>
      <trkpt lat="38.695894671291285" lon="-9.200787248878157">
        <ele>3.7126987453999116</ele>
      </trkpt>
      <trkpt lat="38.69579234557031" lon="-9.201348268659597">
        <ele>3.715552440896028</ele>
      </trkpt>
      <trkpt lat="38.69569001984934" lon="-9.201909288441039">
        <ele>3.7542495601752712</ele>
      </trkpt>
      <trkpt lat="38.69568214873729" lon="-9.201952443275616">
        <ele>3.750222230006087</ele>
      </trkpt>
      <trkpt lat="38.69558012359437" lon="-9.202513550852347">
        <ele>3.754579295124578</ele>
      </trkpt>
      <trkpt lat="38.69547809845144" lon="-9.203074658429077">
        <ele>3.7376966374437686</ele>
      </trkpt>
      <trkpt lat="38.695376073308516" lon="-9.203635766005808">
        <ele>3.709037582028319</ele>
      </trkpt>
      <trkpt lat="38.69536801091911" lon="-9.203680106720782">
        <ele>3.7091547622702183</ele>
      </trkpt>
      <trkpt lat="38.695264866089296" lon="-9.204240876377765">
        <ele>3.7347633403949954</ele>
      </trkpt>
      <trkpt lat="38.69523236291636" lon="-9.204417587058998">
        <ele>3.7283731914662184</ele>
      </trkpt>
      <trkpt lat="38.695227281144355" lon="-9.204487038424304">
        <ele>3.7295651446176947</ele>
      </trkpt>
      <trkpt lat="38.695651882798586" lon="-9.20467668143129">
        <ele>3.782035766460468</ele>
      </trkpt>
      <trkpt lat="38.69570835399389" lon="-9.204701903582873">
        <ele>3.790870274528423</ele>
      </trkpt>
      <trkpt lat="38.69613687341279" lon="-9.204876483358335">
        <ele>3.863520674970439</ele>
      </trkpt>
      <trkpt lat="38.6964236329014" lon="-9.20499330981923">
        <ele>3.8824744317790247</ele>
      </trkpt>
    </trkseg>
  </trk>
</gpx>
